NORAD_CAT_ID,OBJECT_NAME,OBJECT_TYPE,EPOCH,MEAN_MOTION,ECCENTRICITY,INCLINATION,RA_OF_ASC_NODE,ARG_OF_PERICENTER,MEAN_ANOMALY,BSTAR,MEAN_MOTION_DOT,MEAN_MOTION_DDOT,TLE_LINE0,TLE_LINE1,TLE_LINE2,SEMIMAJOR_AXIS,PERIOD,APOGEE,PERIGEE,DECAYED
55767.0,STARLINK-5606,PAYLOAD,2024-01-07 13:11:41,14.98332551,0.0002841,69.9998,61.9084,264.0263,96.0573,3.2534e-05,2.95e-06,0.0,0 STARLINK-5606,1 55767U 23028AC  24007.54978373  .00000295  00000-0  32534-4 0  9991,2 55767  69.9998  61.9084 0002841 264.0263  96.0573 14.98332551 47875,6950.185,96.107,574.025,570.075,0.0
55767.0,STARLINK-5606,PAYLOAD,2024-01-08 11:37:34,14.98330727,0.0002877,69.9997,59.552,265.1009,94.9821,5.3149e-05,5.41e-06,0.0,0 STARLINK-5606,1 55767U 23028AC  24008.48442339  .00000541  00000-0  53149-4 0  9992,2 55767  69.9997  59.5520 0002877 265.1009  94.9821 14.98330727 48003,6950.191,96.107,574.055,570.056,0.0
55767.0,STARLINK-5606,PAYLOAD,2024-01-08 13:13:42,14.98332208,0.0002868,69.9998,59.384,265.3251,94.758,6.8057e-05,7.19e-06,0.0,0 STARLINK-5606,1 55767U 23028AC  24008.55118195  .00000719  00000-0  68057-4 0  9991,2 55767  69.9998  59.3840 0002868 265.3251  94.7580 14.98332208 48026,6950.186,96.107,574.044,570.058,0.0
55767.0,STARLINK-5606,PAYLOAD,2024-01-09 11:39:34,14.98335674,0.0002765,69.9999,57.0272,262.532,97.5525,2.3403e-05,1.86e-06,0.0,0 STARLINK-5606,1 55767U 23028AC  24009.48581828  .00000186  00000-0  23403-4 0  9995,2 55767  69.9999  57.0272 0002765 262.5320  97.5525 14.98335674 48157,6950.175,96.107,573.962,570.119,0.0
55767.0,STARLINK-5606,PAYLOAD,2024-01-09 13:15:42,14.98335822,0.0002773,69.9999,56.8587,263.4174,96.6669,2.4557e-05,2e-06,0.0,0 STARLINK-5606,1 55767U 23028AC  24009.55257794  .00000200  00000-0  24557-4 0  9993,2 55767  69.9999  56.8587 0002773 263.4174  96.6669 14.98335822 48175,6950.175,96.107,573.967,570.113,0.0
55767.0,STARLINK-5606,PAYLOAD,2024-01-10 03:40:55,14.98329439,0.0002564,70.0004,55.3432,266.9776,93.109,-1.4342e-05,-2.64e-06,0.0,0 STARLINK-5606,1 55767U 23028AC  24010.15342212 -.00000264  00000-0 -14342-4 0  9994,2 55767  70.0004  55.3432 0002564 266.9776  93.1090 14.98329439 48258,6950.195,96.107,573.842,570.278,0.0
55767.0,STARLINK-5606,PAYLOAD,2024-01-10 10:05:28,14.98327601,0.000262,70.0002,54.67,266.6895,93.3964,-3.8521e-05,-5.52e-06,0.0,0 STARLINK-5606,1 55767U 23028AC  24010.42046393 -.00000552  00000-0 -38521-4 0  9990,2 55767  70.0002  54.6700 0002620 266.6895  93.3964 14.98327601 48305,6950.2,96.107,573.886,570.244,0.0
55767.0,STARLINK-5606,PAYLOAD,2024-01-11 03:42:56,14.98332718,0.0002656,70.0001,52.8182,267.0482,93.0373,-7.9965e-06,-1.88e-06,0.0,0 STARLINK-5606,1 55767U 23028AC  24011.15481912 -.00000188  00000-0 -79965-5 0  9994,2 55767  70.0001  52.8182 0002656 267.0482  93.0373 14.98332718 48401,6950.184,96.107,573.895,570.204,0.0
55767.0,STARLINK-5606,PAYLOAD,2024-01-11 11:43:36,14.98333437,0.0002633,70.0001,51.9766,266.435,93.6508,3.8651e-06,-4.7e-07,0.0,0 STARLINK-5606,1 55767U 23028AC  24011.48861766 -.00000047  00000-0  38651-5 0  9999,2 55767  70.0001  51.9766 0002633 266.4350  93.6508 14.98333437 48462,6950.182,96.107,573.877,570.217,0.0
55767.0,STARLINK-5606,PAYLOAD,2024-01-12 03:44:57,14.98322419,0.0002582,70.0,50.2934,260.0137,100.073,-1.5904e-05,-2.83e-06,0.0,0 STARLINK-5606,1 55767U 23028AC  24012.15622510 -.00000283  00000-0 -15904-4 0  9994,2 55767  70.0000  50.2934 0002582 260.0137 100.0730 14.98322419 48554,6950.216,96.107,573.876,570.287,0.0
55767.0,STARLINK-5606,PAYLOAD,2024-01-12 10:09:30,14.98320298,0.0002622,70.0001,49.6201,260.7721,99.3141,-4.1347e-05,-5.86e-06,0.0,0 STARLINK-5606,1 55767U 23028AC  24012.42326842 -.00000586  00000-0 -41347-4 0  9999,2 55767  70.0001  49.6201 0002622 260.7721  99.3141 14.98320298 48600,6950.223,96.108,573.91,570.266,0.0
55767.0,STARLINK-5606,PAYLOAD,2024-01-13 03:46:58,14.98331389,0.0002747,69.9998,47.7681,262.1341,97.9507,-8.0754e-06,-1.89e-06,0.0,0 STARLINK-5606,1 55767U 23028AC  24013.15762201 -.00000189  00000-0 -80754-5 0  9998,2 55767  69.9998  47.7681 0002747 262.1341  97.9507 14.98331389 48709,6950.189,96.107,573.963,570.144,0.0
55767.0,STARLINK-5606,PAYLOAD,2024-01-13 11:47:38,14.98331524,0.000274,69.9999,46.9266,262.2392,97.8456,-1.7572e-06,-1.14e-06,0.0,0 STARLINK-5606,1 55767U 23028AC  24013.49142160 -.00000114  00000-0 -17572-5 0  9997,2 55767  69.9999  46.9266 0002740 262.2392  97.8456 14.98331524 48769,6950.188,96.107,573.958,570.149,0.0
55767.0,STARLINK-5606,PAYLOAD,2024-01-14 03:48:59,14.98326957,0.0002938,69.9995,45.243,265.6993,94.383,5.2997e-05,5.39e-06,0.0,0 STARLINK-5606,1 55767U 23028AC  24014.15902321  .00000539  00000-0  52997-4 0  9992,2 55767  69.9995  45.2430 0002938 265.6993  94.3830 14.98326957 48855,6950.202,96.107,574.109,570.025,0.0
55767.0,STARLINK-5606,PAYLOAD,2024-01-14 11:49:39,14.9833065,0.0002883,69.9997,44.4017,265.3871,94.6958,9.0945e-05,9.92e-06,0.0,0 STARLINK-5606,1 55767U 23028AC  24014.49282004  .00000992  00000-0  90945-4 0  9996,2 55767  69.9997  44.4017 0002883 265.3871  94.6958 14.98330650 48916,6950.191,96.107,574.06,570.052,0.0
55767.0,STARLINK-5606,PAYLOAD,2024-01-15 03:51:00,14.98332723,0.0002804,69.9999,42.7173,270.6737,89.4101,1.824e-05,1.25e-06,0.0,0 STARLINK-5606,1 55767U 23028AC  24015.16042035  .00000125  00000-0  18240-4 0  9995,2 55767  69.9999  42.7173 0002804 270.6737  89.4101 14.98332723 49001,6950.184,96.107,573.998,570.101,0.0
55767.0,STARLINK-5606,PAYLOAD,2024-01-15 11:51:40,14.98336784,0.0002757,69.9999,41.8757,270.9828,89.1015,6.5933e-05,6.94e-06,0.0,0 STARLINK-5606,1 55767U 23028AC  24015.49421550  .00000694  00000-0  65933-4 0  9996,2 55767  69.9999  41.8757 0002757 270.9828  89.1015 14.98336784 49068,6950.172,96.107,573.953,570.121,0.0
55767.0,STARLINK-5606,PAYLOAD,2024-01-16 11:53:42,14.98324101,0.0002497,70.0007,39.3509,273.442,86.6454,-6.6151e-05,-8.82e-06,0.0,0 STARLINK-5606,1 55767U 23028AC  24016.49562828 -.00000882  00000-0 -66151-4 0  9995,2 55767  70.0007  39.3509 0002497 273.4420  86.6454 14.98324101 49200,6950.211,96.107,573.812,570.341,0.0
55767.0,STARLINK-5606,PAYLOAD,2024-01-17 03:55:02,14.9832762,0.000264,70.0004,37.6692,268.1105,91.9751,6.3427e-05,6.64e-06,0.0,0 STARLINK-5606,1 55767U 23028AC  24017.16322104  .00000664  00000-0  63427-4 0  9990,2 55767  70.0004  37.6692 0002640 268.1105  91.9751 14.98327620 49301,6950.2,96.107,573.9,570.23,0.0
55767.0,STARLINK-5606,PAYLOAD,2024-01-17 10:19:34,14.98335291,0.0002709,70.0,36.995,262.9788,97.1063,4.3919e-05,4.31e-06,0.0,0 STARLINK-5606,1 55767U 23028AC  24017.43025615  .00000431  00000-0  43919-4 0  9993,2 55767  70.0000  36.9950 0002709 262.9788  97.1063 14.98335291 49353,6950.177,96.107,573.924,570.159,0.0
55767.0,STARLINK-5606,PAYLOAD,2024-01-18 03:57:03,14.98323519,0.0002704,69.9999,35.1432,258.8315,101.254,2.0728e-05,1.54e-06,0.0,0 STARLINK-5606,1 55767U 23028AC  24018.16462395  .00000154  00000-0  20728-4 0  9999,2 55767  69.9999  35.1432 0002704 258.8315 101.2540 14.98323519 49456,6950.213,96.107,573.957,570.199,0.0
55767.0,STARLINK-5606,PAYLOAD,2024-01-18 10:21:35,14.98317643,0.0002999,69.9995,34.4685,266.4813,93.6003,0.00018232,2.082e-05,0.0,0 STARLINK-5606,1 55767U 23028AC  24018.43166444  .00002082  00000-0  18232-3 0  9993,2 55767  69.9995  34.4685 0002999 266.4813  93.6003 14.98317643 49503,6950.231,96.108,574.18,570.012,0.0
55767.0,STARLINK-5606,PAYLOAD,2024-01-19 03:59:04,14.98328571,0.0002855,69.9995,32.6173,267.907,92.1762,4.1918e-05,4.07e-06,0.0,0 STARLINK-5606,1 55767U 23028AC  24019.16602134  .00000407  00000-0  41918-4 0  9992,2 55767  69.9995  32.6173 0002855 267.9070  92.1762 14.98328571 49606,6950.197,96.107,574.047,570.078,0.0
55767.0,STARLINK-5606,PAYLOAD,2024-01-19 10:23:36,14.9833187,0.0002808,69.9998,31.9444,268.0668,92.0169,5.1551e-05,5.22e-06,0.0,0 STARLINK-5606,1 55767U 23028AC  24019.43305895  .00000522  00000-0  51551-4 0  9998,2 55767  69.9998  31.9444 0002808 268.0668  92.0169 14.98331870 49656,6950.187,96.107,574.004,570.1,0.0
55767.0,STARLINK-5606,PAYLOAD,2024-01-20 04:01:05,14.9832848,0.0002874,69.9999,30.0929,268.5829,91.5,1.7277e-05,1.13e-06,0.0,0 STARLINK-5606,1 55767U 23028AC  24020.16742089  .00000113  00000-0  17277-4 0  9993,2 55767  69.9999  30.0929 0002874 268.5829  91.5000 14.98328480 49754,6950.198,96.107,574.06,570.065,0.0
55767.0,STARLINK-5606,PAYLOAD,2024-01-20 10:25:37,14.98330627,0.0002846,70.0,29.4197,268.8812,91.2021,4.2394e-05,4.13e-06,0.0,0 STARLINK-5606,1 55767U 23028AC  24020.43445891  .00000413  00000-0  42394-4 0  9995,2 55767  70.0000  29.4197 0002846 268.8812  91.2021 14.98330627 49805,6950.191,96.107,574.034,570.078,0.0
55767.0,STARLINK-5606,PAYLOAD,2024-01-21 04:03:06,14.98328898,0.0002605,70.0009,27.5691,260.1485,99.938,-2.2789e-05,-3.65e-06,0.0,0 STARLINK-5606,1 55767U 23028AC  24021.16882170 -.00000365  00000-0 -22789-4 0  9995,2 55767  70.0009  27.5691 0002605 260.1485  99.9380 14.98328898 49907,6950.196,96.107,573.872,570.251,0.0
55767.0,STARLINK-5606,PAYLOAD,2024-01-21 05:39:14,14.98328589,0.0002616,70.0008,27.4008,259.3758,100.7106,-2.6056e-05,-4.04e-06,0.0,0 STARLINK-5606,1 55767U 23028AC  24021.23558201 -.00000404  00000-0 -26056-4 0  9993,2 55767  70.0008  27.4008 0002616 259.3758 100.7106 14.98328589 49928,6950.197,96.107,573.88,570.244,0.0
55767.0,STARLINK-5606,PAYLOAD,2024-01-21 10:27:38,14.98328143,0.0002621,70.0008,26.8956,262.1956,97.8905,-2.908e-05,-4.4e-06,0.0,0 STARLINK-5606,1 55767U 23028AC  24021.43586270 -.00000440  00000-0 -29080-4 0  9992,2 55767  70.0008  26.8956 0002621 262.1956  97.8905 14.98328143 49953,6950.199,96.107,573.885,570.242,0.0
55767.0,STARLINK-5606,PAYLOAD,2024-01-22 04:05:06,14.98332544,0.0002732,70.0005,25.043,267.8786,92.206,2.1893e-05,1.68e-06,0.0,0 STARLINK-5606,1 55767U 23028AC  24022.17021772  .00000168  00000-0  21893-4 0  9994,2 55767  70.0005  25.0430 0002732 267.8786  92.2060 14.98332544 50058,6950.185,96.107,573.949,570.151,0.0
